{"type": "FeatureCollection", "features": [ {"type": "Feature", "properties": {"norad_id": 35891, "name": "COSMOS 2251 DEB", "group": "cosmos-2251-debris", "lat": -5.957179293467095, "lon": -112.58503825681186, "alt_km": 438.10321508303605, "timestamp": "2025-12-25T20:42:39.084546+00:00", "meta": {"OBJECT_NAME": "COSMOS 2251 DEB", "OBJECT_ID": "1993-036AUE", "EPOCH": "2025-12-24T11:02:21.554880", "MEAN_MOTION": 15.34278656, "ECCENTRICITY": 0.00414162, "INCLINATION": 73.9889, "RA_OF_ASC_NODE": 68.7111, "ARG_OF_PERICENTER": 197.0192, "MEAN_ANOMALY": 162.9627, "EPHEMERIS_TYPE": 0, "CLASSIFICATION_TYPE": "U", "NORAD_CAT_ID": 35891, "ELEMENT_SET_NO": 999, "REV_AT_EPOCH": 67400, "BSTAR": 0.0013301522, "MEAN_MOTION_DOT": 0.00045622, "MEAN_MOTION_DDOT": 0}, "tle": {"line1": "1 35891U 93036AUE 25358.45997170  .00045622  00000+0  13302-2 0  9991", "line2": "2 35891  73.9889  68.7111 0041416 197.0192 162.9627 15.34278656674008"}}, "geometry": {"type": "Point", "coordinates": [-112.58503825681186, -5.957179293467095]}}, {"type": "Feature", "properties": {"norad_id": 35895, "name": "COSMOS 2251 DEB", "group": "cosmos-2251-debris", "lat": 15.16880524809363, "lon": -30.654800132039263, "alt_km": 783.3226701972226, "timestamp": "2025-12-25T20:42:39.084556+00:00", "meta": {"OBJECT_NAME": "COSMOS 2251 DEB", "OBJECT_ID": "1993-036AUJ", "EPOCH": "2025-12-22T15:33:07.695936", "MEAN_MOTION": 14.01570651, "ECCENTRICITY": 0.01984376, "INCLINATION": 74.0474, "RA_OF_ASC_NODE": 330.4733, "ARG_OF_PERICENTER": 66.0465, "MEAN_ANOMALY": 296.1309, "EPHEMERIS_TYPE": 0, "CLASSIFICATION_TYPE": "U", "NORAD_CAT_ID": 35895, "ELEMENT_SET_NO": 999, "REV_AT_EPOCH": 59151, "BSTAR": 0.0014393062, "MEAN_MOTION_DOT": 2.565e-05, "MEAN_MOTION_DDOT": 0}, "tle": {"line1": "1 35895U 93036AUJ 25356.64800574  .00002565  00000+0  14393-2 0  9995", "line2": "2 35895  74.0474 330.4733 0198437  66.0465 296.1309 14.01570651591511"}}, "geometry": {"type": "Point", "coordinates": [-30.654800132039263, 15.16880524809363]}}, {"type": "Feature", "properties": {"norad_id": 35898, "name": "COSMOS 2251 DEB", "group": "cosmos-2251-debris", "lat": -35.317265386288135, "lon": -100.81153629004288, "alt_km": 585.8866926945566, "timestamp": "2025-12-25T20:42:39.084566+00:00", "meta": {"OBJECT_NAME": "COSMOS 2251 DEB", "OBJECT_ID": "1993-036AUM", "EPOCH": "2025-12-23T01:28:13.609632", "MEAN_MOTION": 14.9486843, "ECCENTRICITY": 0.00792798, "INCLINATION": 73.9918, "RA_OF_ASC_NODE": 276.5869, "ARG_OF_PERICENTER": 57.1802, "MEAN_ANOMALY": 315.6135, "EPHEMERIS_TYPE": 0, "CLASSIFICATION_TYPE": "U", "NORAD_CAT_ID": 35898, "ELEMENT_SET_NO": 999, "REV_AT_EPOCH": 66964, "BSTAR": 0.00085758423, "MEAN_MOTION_DOT": 9.925e-05, "MEAN_MOTION_DDOT": 0}, "tle": {"line1": "1 35898U 93036AUM 25357.06126863  .00009925  00000+0  85758-3 0  9998", "line2": "2 35898  73.9918 276.5869 0079279  57.1802 315.6135 14.94868430669644"}}, "geometry": {"type": "Point", "coordinates": [-100.81153629004288, -35.317265386288135]}}, {"type": "Feature", "properties": {"norad_id": 35901, "name": "COSMOS 2251 DEB", "group": "cosmos-2251-debris", "lat": -31.025314889436313, "lon": -174.22743479490322, "alt_km": 549.6859610079528, "timestamp": "2025-12-25T20:42:39.084576+00:00", "meta": {"OBJECT_NAME": "COSMOS 2251 DEB", "OBJECT_ID": "1993-036AUQ", "EPOCH": "2025-12-21T07:33:55.014048", "MEAN_MOTION": 15.07789315, "ECCENTRICITY": 0.0007598, "INCLINATION": 74.0113, "RA_OF_ASC_NODE": 5.2093, "ARG_OF_PERICENTER": 337.8636, "MEAN_ANOMALY": 36.6976, "EPHEMERIS_TYPE": 0, "CLASSIFICATION_TYPE": "U", "NORAD_CAT_ID": 35901, "ELEMENT_SET_NO": 999, "REV_AT_EPOCH": 86256, "BSTAR": 0.0027352, "MEAN_MOTION_DOT": 0.00042089, "MEAN_MOTION_DDOT": 0}, "tle": {"line1": "1 35901U 93036AUQ 25355.31522007  .00042089  00000+0  27352-2 0  9992", "line2": "2 35901  74.0113   5.2093 0007598 337.8636  36.6976 15.07789315862560"}}, "geometry": {"type": "Point", "coordinates": [-174.22743479490322, -31.025314889436313]}}, {"type": "Feature", "properties": {"norad_id": 35902, "name": "COSMOS 2251 DEB", "group": "cosmos-2251-debris", "lat": -64.93400692551242, "lon": 172.8681583415793, "alt_km": 747.1145388855584, "timestamp": "2025-12-25T20:42:39.084586+00:00", "meta": {"OBJECT_NAME": "COSMOS 2251 DEB", "OBJECT_ID": "1993-036AUR", "EPOCH": "2025-12-22T20:41:03.846048", "MEAN_MOTION": 14.26951694, "ECCENTRICITY": 0.0102351, "INCLINATION": 73.9816, "RA_OF_ASC_NODE": 216.2092, "ARG_OF_PERICENTER": 329.0141, "MEAN_ANOMALY": 30.4992, "EPHEMERIS_TYPE": 0, "CLASSIFICATION_TYPE": "U", "NORAD_CAT_ID": 35902, "ELEMENT_SET_NO": 999, "REV_AT_EPOCH": 61274, "BSTAR": 0.0010058, "MEAN_MOTION_DOT": 2.559e-05, "MEAN_MOTION_DDOT": 0}, "tle": {"line1": "1 35902U 93036AUR 25356.86185007  .00002559  00000+0  10058-2 0  9992", "line2": "2 35902  73.9816 216.2092 0102351 329.0141  30.4992 14.26951694612743"}}, "geometry": {"type": "Point", "coordinates": [172.8681583415793, -64.93400692551242]}}, {"type": "Feature", "properties": {"norad_id": 35905, "name": "COSMOS 2251 DEB", "group": "cosmos-2251-debris", "lat": 47.08089720171721, "lon": -157.89225958969357, "alt_km": 618.5884264781535, "timestamp": "2025-12-25T20:42:39.084596+00:00", "meta": {"OBJECT_NAME": "COSMOS 2251 DEB", "OBJECT_ID": "1993-036AUU", "EPOCH": "2025-12-20T21:58:14.302848", "MEAN_MOTION": 14.99122069, "ECCENTRICITY": 0.00907118, "INCLINATION": 74.0303, "RA_OF_ASC_NODE": 194.2135, "ARG_OF_PERICENTER": 272.3815, "MEAN_ANOMALY": 86.6988, "EPHEMERIS_TYPE": 0, "CLASSIFICATION_TYPE": "U", "NORAD_CAT_ID": 35905, "ELEMENT_SET_NO": 999, "REV_AT_EPOCH": 88705, "BSTAR": 0.00044734031, "MEAN_MOTION_DOT": 5.886e-05, "MEAN_MOTION_DDOT": 0}, "tle": {"line1": "1 35905U 93036AUU 25354.91544332  .00005886  00000+0  44734-3 0  9994", "line2": "2 35905  74.0303 194.2135 0090711 272.3815  86.6988 14.99122069887058"}}, "geometry": {"type": "Point", "coordinates": [-157.89225958969357, 47.08089720171721]}}, {"type": "Feature", "properties": {"norad_id": 35959, "name": "COSMOS 2251 DEB", "group": "cosmos-2251-debris", "lat": -5.133171140522209, "lon": -73.43284217566803, "alt_km": 765.6359969074501, "timestamp": "2025-12-25T20:42:39.084606+00:00", "meta": {"OBJECT_NAME": "COSMOS 2251 DEB", "OBJECT_ID": "1993-036AUZ", "EPOCH": "2025-12-24T06:13:49.219680", "MEAN_MOTION": 14.34143688, "ECCENTRICITY": 0.00220445, "INCLINATION": 74.0332, "RA_OF_ASC_NODE": 290.9748, "ARG_OF_PERICENTER": 8.3325, "MEAN_ANOMALY": 351.8188, "EPHEMERIS_TYPE": 0, "CLASSIFICATION_TYPE": "U", "NORAD_CAT_ID": 35959, "ELEMENT_SET_NO": 999, "REV_AT_EPOCH": 85093, "BSTAR": 0.00012200296, "MEAN_MOTION_DOT": 3.16e-06, "MEAN_MOTION_DDOT": 0}, "tle": {"line1": "1 35959U 93036AUZ 25358.25959745  .00000316  00000+0  12200-3 0  9998", "line2": "2 35959  74.0332 290.9748 0022044   8.3325 351.8188 14.34143688850935"}}, "geometry": {"type": "Point", "coordinates": [-73.43284217566803, -5.133171140522209]}}, {"type": "Feature", "properties": {"norad_id": 35961, "name": "COSMOS 2251 DEB", "group": "cosmos-2251-debris", "lat": 8.273640716092592, "lon": -176.49774793050216, "alt_km": 905.0946184173281, "timestamp": "2025-12-25T20:42:39.084615+00:00", "meta": {"OBJECT_NAME": "COSMOS 2251 DEB", "OBJECT_ID": "1993-036AVB", "EPOCH": "2025-12-23T19:07:42.767328", "MEAN_MOTION": 14.05444821, "ECCENTRICITY": 0.01917264, "INCLINATION": 73.9256, "RA_OF_ASC_NODE": 184.7319, "ARG_OF_PERICENTER": 115.7574, "MEAN_ANOMALY": 246.3488, "EPHEMERIS_TYPE": 0, "CLASSIFICATION_TYPE": "U", "NORAD_CAT_ID": 35961, "ELEMENT_SET_NO": 999, "REV_AT_EPOCH": 62837, "BSTAR": 0.0013269491, "MEAN_MOTION_DOT": 2.518e-05, "MEAN_MOTION_DDOT": 0}, "tle": {"line1": "1 35961U 93036AVB 25357.79702277  .00002518  00000+0  13269-2 0  9996", "line2": "2 35961  73.9256 184.7319 0191726 115.7574 246.3488 14.05444821628371"}}, "geometry": {"type": "Point", "coordinates": [-176.49774793050216, 8.273640716092592]}}, {"type": "Feature", "properties": {"norad_id": 35979, "name": "COSMOS 2251 DEB", "group": "cosmos-2251-debris", "lat": -65.11283052616758, "lon": 174.525134202543, "alt_km": 627.1755244918231, "timestamp": "2025-12-25T20:42:39.084625+00:00", "meta": {"OBJECT_NAME": "COSMOS 2251 DEB", "OBJECT_ID": "1993-036AVV", "EPOCH": "2025-12-22T21:28:01.748352", "MEAN_MOTION": 14.74747539, "ECCENTRICITY": 0.0059307, "INCLINATION": 74.008, "RA_OF_ASC_NODE": 218.5159, "ARG_OF_PERICENTER": 348.3492, "MEAN_ANOMALY": 27.9615, "EPHEMERIS_TYPE": 0, "CLASSIFICATION_TYPE": "U", "NORAD_CAT_ID": 35979, "ELEMENT_SET_NO": 999, "REV_AT_EPOCH": 88783, "BSTAR": 0.00076773, "MEAN_MOTION_DOT": 5.251e-05, "MEAN_MOTION_DDOT": 0}, "tle": {"line1": "1 35979U 93036AVV 25356.89446468  .00005251  00000+0  76773-3 0  9999", "line2": "2 35979  74.0080 218.5159 0059307 348.3492  27.9615 14.74747539887837"}}, "geometry": {"type": "Point", "coordinates": [174.525134202543, -65.11283052616758]}}, {"type": "Feature", "properties": {"norad_id": 35980, "name": "COSMOS 2251 DEB", "group": "cosmos-2251-debris", "lat": 14.718734241936504, "lon": -86.87233238478942, "alt_km": 679.5490804857118, "timestamp": "2025-12-25T20:42:39.084635+00:00", "meta": {"OBJECT_NAME": "COSMOS 2251 DEB", "OBJECT_ID": "1993-036AVW", "EPOCH": "2025-12-25T00:12:48.467520", "MEAN_MOTION": 14.59467101, "ECCENTRICITY": 0.0053654, "INCLINATION": 73.9124, "RA_OF_ASC_NODE": 99.1155, "ARG_OF_PERICENTER": 232.0037, "MEAN_ANOMALY": 127.6276, "EPHEMERIS_TYPE": 0, "CLASSIFICATION_TYPE": "U", "NORAD_CAT_ID": 35980, "ELEMENT_SET_NO": 999, "REV_AT_EPOCH": 61665, "BSTAR": 0.0016475347, "MEAN_MOTION_DOT": 7.951e-05, "MEAN_MOTION_DDOT": 0}, "tle": {"line1": "1 35980U 93036AVW 25359.00889430  .00007951  00000+0  16475-2 0  9998", "line2": "2 35980  73.9124  99.1155 0053654 232.0037 127.6276 14.59467101616656"}}, "geometry": {"type": "Point", "coordinates": [-86.87233238478942, 14.718734241936504]}}]}